OBJECT_NAME,OBJECT_ID,EPOCH,MEAN_MOTION,ECCENTRICITY,INCLINATION,RA_OF_ASC_NODE,ARG_OF_PERICENTER,MEAN_ANOMALY,EPHEMERIS_TYPE,CLASSIFICATION_TYPE,NORAD_CAT_ID,ELEMENT_SET_NO,REV_AT_EPOCH,BSTAR,MEAN_MOTION_DOT,MEAN_MOTION_DDOT
TDRS 3,1988-091B,2026-07-02T18:52:56.315424,1.00268282,.00370641,12.5900,340.8949,356.5169,177.7423,0,U,19548,999,12554,0,-.291E-5,0
FLTSATCOM 8 (USA 46),1989-077A,2026-07-02T19:55:16.582656,1.00269425,.00037119,12.4170,351.0691,63.1668,291.1875,0,U,20253,999,26071,0,-.359E-5,0
SKYNET 4C,1990-079A,2026-07-02T10:07:40.044864,0.98576857,.0003382,13.3333,349.7146,127.1293,224.5561,0,U,20776,999,18,0,-.24E-6,0
TDRS 5,1991-054B,2026-07-02T16:36:19.276128,1.00269588,.00065743,14.0689,353.6604,258.4573,110.0432,0,U,21639,999,12787,0,.91E-6,0
TDRS 6,1993-003B,2026-07-02T09:08:38.539968,1.00265807,.0008767,14.1830,356.9453,180.2248,194.3787,0,U,22314,999,12256,0,-.29E-5,0
UFO 2 (USA 95),1993-056A,2026-07-02T15:49:45.676416,1.00276047,.0004203,11.9000,3.4689,9.0561,174.2772,0,U,22787,999,11870,0,.132E-5,0
USA 99 (MILSTAR-1 1),1994-009A,2026-07-01T23:58:48.937728,0.98721676,.00010485,17.6475,27.5506,181.0184,353.5539,0,U,22988,999,3309,0,-.8E-6,0
UFO 4 (USA 108),1995-003A,2026-07-02T18:13:23.166624,1.00272582,.00028704,9.6799,13.0815,86.8014,266.4875,0,U,23467,999,11510,0,-.15E-6,0
TDRS 7,1995-035B,2026-07-02T17:45:14.935680,1.00277191,.00117051,13.3706,348.0825,83.0502,205.0712,0,U,23613,999,11340,0,-.233E-5,0
USA 115 (MILSTAR-1 2),1995-060A,2026-07-01T23:52:03.607680,1.00273395,.00064693,14.0771,3.6326,115.7107,68.6814,0,U,23712,999,3303,0,-.197E-5,0
INMARSAT 3-F1,1996-020A,2026-07-02T15:09:51.546240,0.99978213,.00039947,10.6324,46.4911,73.2696,276.8546,0,U,23839,999,11040,0,-.11E-6,0
INMARSAT 3-F2,1996-053A,2026-07-02T21:43:05.183040,0.99997695,.00064307,9.8916,53.7753,43.6410,283.3086,0,U,24307,999,10907,0,-.337E-5,0
INMARSAT 3-F3,1996-070A,2026-07-02T20:27:32.886144,0.99989979,.00033192,10.3513,49.5020,57.7306,146.9226,0,U,24674,999,10806,0,.111E-5,0
USA 134,1997-065A,2026-07-02T13:26:59.105184,1.00271465,.0002609,12.8012,21.6033,347.0523,1.2546,0,U,25019,999,3310,0,-.57E-6,0
INMARSAT 3-F5,1998-006B,2026-07-02T01:44:52.214784,1.00270745,.00042343,9.7243,53.1097,46.9125,152.3411,0,U,25153,999,10404,0,-.286E-5,0
ABS-6,1999-053A,2026-07-02T20:44:56.037408,1.00271895,.00030358,0.0417,276.9886,163.0390,311.0970,0,U,25924,999,9799,0,-.109E-5,0
UFO 10 (USA 146),1999-063A,2026-07-02T08:44:23.723808,1.00274763,.00020563,9.8410,27.1295,91.3774,269.9880,0,U,25967,999,9750,0,-.182E-5,0
ASIASTAR,2000-016A,2026-07-02T18:06:30.005280,1.00269567,.00044935,9.1635,57.9857,44.1099,195.3202,0,U,26107,999,9607,0,-.327E-5,0
USA 149 (DSP 20),2000-024A,2026-07-02T16:37:11.693280,1.00282250,.00013115,13.1813,11.7375,315.1660,38.0884,0,U,26356,999,3306,0,.102E-5,0
TDRS 8,2000-034A,2026-07-02T19:14:37.146048,1.00274710,.00045393,12.7077,31.1882,27.2019,235.8936,0,U,26388,999,9533,0,-.19E-5,0
NSS-11,2000-059A,2026-07-02T18:14:23.071200,1.00271613,.00030745,2.1644,81.2167,18.6504,270.5180,0,U,26554,999,4144,0,.34E-6,0
USA 153,2000-065A,2026-06-30T11:17:35.543328,1.00267599,.00030357,11.6465,35.3089,54.5579,132.3965,0,U,26575,999,3306,0,-.323E-5,0
AMC-6,2000-067A,2026-07-02T18:28:21.730944,1.00273336,.0004097,0.1896,83.4566,29.2769,310.1425,0,U,26580,999,9404,0,.99E-6,0
USA 157 (MILSTAR-2 2),2001-009A,2026-07-02T16:41:26.285568,1.00269786,.00400071,11.5586,19.6630,178.2539,183.1077,0,U,26715,999,3310,0,.116E-5,0
INTELSAT 902 (IS-902),2001-039A,2026-07-02T01:45:59.606784,1.00272101,.00042983,6.1537,71.6012,27.5125,157.3906,0,U,26900,999,9084,0,-.276E-5,0
USA 164 (MILSTAR-2 3),2002-001A,2026-07-02T17:47:04.579008,1.00273186,.00991192,11.1969,21.8076,8.9359,175.7196,0,U,27168,999,3311,0,.104E-5,0
INTELSAT 904 (IS-904),2002-007A,2026-07-02T10:24:38.419200,1.00271556,.0006275,6.9556,69.0021,16.0550,320.0982,0,U,27380,999,5191,0,-.219E-5,0
DIRECTV 5 (TEMPO 1),2002-023A,2026-07-02T16:52:47.697312,1.00271722,.0003529,4.9150,75.1209,35.7481,312.9629,0,U,27426,999,8827,0,-.49E-6,0
INTELSAT 905 (IS-905),2002-027A,2026-07-02T18:27:44.291232,1.00272567,.00039984,6.7901,69.6130,32.8456,318.0766,0,U,27438,999,5151,0,.101E-5,0
GALAXY 3C (G-3C),2002-030A,2026-07-02T13:31:51.138048,1.00272065,.0001915,3.7702,77.7817,28.8727,282.0852,0,U,27445,999,4664,0,-.144E-5,0
INTELSAT 906 (IS-906),2002-041A,2026-07-02T18:40:59.593728,1.00270573,.00040855,5.8411,72.7293,10.5963,181.8750,0,U,27513,999,8718,0,.21E-6,0
